[{"OBJECT_NAME":"STARLINK-35632","OBJECT_ID":"2025-237R","EPOCH":"2026-03-09T04:46:11.045280","MEAN_MOTION":15.30186129,"ECCENTRICITY":0.00010653,"INCLINATION":53.1611,"RA_OF_ASC_NODE":42.0282,"ARG_OF_PERICENTER":112.3321,"MEAN_ANOMALY":247.7793,"EPHEMERIS_TYPE":0,"CLASSIFICATION_TYPE":"U","NORAD_CAT_ID":66129,"ELEMENT_SET_NO":999,"REV_AT_EPOCH":2253,"BSTAR":0.00090964705,"MEAN_MOTION_DOT":0.00026667,"MEAN_MOTION_DDOT":0},{"OBJECT_NAME":"KUIPER-00226","OBJECT_ID":"2026-030X","EPOCH":"2026-03-09T15:01:51.726432","MEAN_MOTION":15.30655594,"ECCENTRICITY":0.0017713,"INCLINATION":51.8814,"RA_OF_ASC_NODE":220.1252,"ARG_OF_PERICENTER":64.2781,"MEAN_ANOMALY":296.003,"EPHEMERIS_TYPE":0,"CLASSIFICATION_TYPE":"U","NORAD_CAT_ID":67785,"ELEMENT_SET_NO":999,"REV_AT_EPOCH":507,"BSTAR":0.001553,"MEAN_MOTION_DOT":0.00046834,"MEAN_MOTION_DDOT":0}]
